{
  "type": "FeatureCollection",
  "features": [
    {
      "type": "Feature",
      "properties": {
        "norad_id": 41877,
        "name": "RESOURCESAT-2A",
        "group": "resource",
        "lat": 81.07815945862761,
        "lon": -46.97755535129365,
        "alt_km": 813.3191405807611,
        "timestamp": "2025-12-09T09:46:47.304520+00:00",
        "meta_object_name": "RESOURCESAT-2A",
        "meta_object_id": "2016-074A",
        "meta_epoch": "2025-12-09T04:16:58.829952",
        "meta_mean_motion": 14.21597552,
        "meta_eccentricity": 0.0001142,
        "meta_inclination": 98.7759,
        "meta_ra_of_asc_node": 53.055,
        "meta_arg_of_pericenter": 273.1549,
        "meta_mean_anomaly": 86.9497,
        "meta_ephemeris_type": 0,
        "meta_classification_type": "U",
        "meta_norad_cat_id": 41877,
        "meta_element_set_no": 999,
        "meta_rev_at_epoch": 46730,
        "meta_bstar": 0.00018047,
        "meta_mean_motion_dot": 3.51e-06,
        "meta_mean_motion_ddot": 0,
        "tle_line1": "1 41877U 16074A   25343.17845868  .00000351  00000+0  18047-3 0  9990",
        "tle_line2": "2 41877  98.7759  53.0550 0001142 273.1549  86.9497 14.21597552467305"
      },
      "geometry": {
        "type": "Point",
        "coordinates": [
          -46.97755535129365,
          81.07815945862761
        ]
      }
    },
    {
      "type": "Feature",
      "properties": {
        "norad_id": 41948,
        "name": "CARTOSAT-2D",
        "group": "resource",
        "lat": 8.4991321213173,
        "lon": 39.83598658508042,
        "alt_km": 512.9886178101187,
        "timestamp": "2025-12-09T09:46:47.304530+00:00",
        "meta_object_name": "CARTOSAT-2D",
        "meta_object_id": "2017-008A",
        "meta_epoch": "2025-12-08T22:40:35.783904",
        "meta_mean_motion": 15.1919468,
        "meta_eccentricity": 0.0004274,
        "meta_inclination": 97.439,
        "meta_ra_of_asc_node": 40.4992,
        "meta_arg_of_pericenter": 173.1191,
        "meta_mean_anomaly": 187.0103,
        "meta_ephemeris_type": 0,
        "meta_classification_type": "U",
        "meta_norad_cat_id": 41948,
        "meta_element_set_no": 999,
        "meta_rev_at_epoch": 48869,
        "meta_bstar": 0.00017340876,
        "meta_mean_motion_dot": 3.581e-05,
        "meta_mean_motion_ddot": 0,
        "tle_line1": "1 41948U 17008A   25342.94485861  .00003581  00000+0  17341-3 0  9998",
        "tle_line2": "2 41948  97.4390  40.4992 0004274 173.1191 187.0103 15.19194680488697"
      },
      "geometry": {
        "type": "Point",
        "coordinates": [
          39.83598658508042,
          8.4991321213173
        ]
      }
    },
    {
      "type": "Feature",
      "properties": {
        "norad_id": 42063,
        "name": "SENTINEL-2B",
        "group": "resource",
        "lat": -49.534007254893666,
        "lon": 66.0843570721706,
        "alt_km": 796.5108533165203,
        "timestamp": "2025-12-09T09:46:47.304541+00:00",
        "meta_object_name": "SENTINEL-2B",
        "meta_object_id": "2017-013A",
        "meta_epoch": "2025-12-08T22:15:58.347360",
        "meta_mean_motion": 14.30812743,
        "meta_eccentricity": 0.00011416,
        "meta_inclination": 98.572,
        "meta_ra_of_asc_node": 55.4271,
        "meta_arg_of_pericenter": 93.0805,
        "meta_mean_anomaly": 267.0508,
        "meta_ephemeris_type": 0,
        "meta_classification_type": "U",
        "meta_norad_cat_id": 42063,
        "meta_element_set_no": 999,
        "meta_rev_at_epoch": 45743,
        "meta_bstar": 1.2424479e-05,
        "meta_mean_motion_dot": -1.1e-07,
        "meta_mean_motion_ddot": 0,
        "tle_line1": "1 42063U 17013A   25342.92775865 -.00000011  00000+0  12424-4 0  9991",
        "tle_line2": "2 42063  98.5720  55.4271 0001141  93.0805 267.0508 14.30812743457438"
      },
      "geometry": {
        "type": "Point",
        "coordinates": [
          66.0843570721706,
          -49.534007254893666
        ]
      }
    },
    {
      "type": "Feature",
      "properties": {
        "norad_id": 42767,
        "name": "CARTOSAT-2E",
        "group": "resource",
        "lat": -78.05379437492913,
        "lon": 79.27797617260977,
        "alt_km": 513.9289871404562,
        "timestamp": "2025-12-09T09:46:47.304554+00:00",
        "meta_object_name": "CARTOSAT-2E",
        "meta_object_id": "2017-036C",
        "meta_epoch": "2025-12-09T03:48:41.056128",
        "meta_mean_motion": 15.19263445,
        "meta_eccentricity": 0.000238,
        "meta_inclination": 97.4558,
        "meta_ra_of_asc_node": 40.7915,
        "meta_arg_of_pericenter": 255.1174,
        "meta_mean_anomaly": 104.9797,
        "meta_ephemeris_type": 0,
        "meta_classification_type": "U",
        "meta_norad_cat_id": 42767,
        "meta_element_set_no": 999,
        "meta_rev_at_epoch": 46929,
        "meta_bstar": 0.00021093,
        "meta_mean_motion_dot": 4.379e-05,
        "meta_mean_motion_ddot": 0,
        "tle_line1": "1 42767U 17036C   25343.15880852  .00004379  00000+0  21093-3 0  9997",
        "tle_line2": "2 42767  97.4558  40.7915 0002380 255.1174 104.9797 15.19263445469297"
      },
      "geometry": {
        "type": "Point",
        "coordinates": [
          79.27797617260977,
          -78.05379437492913
        ]
      }
    },
    {
      "type": "Feature",
      "properties": {
        "norad_id": 42920,
        "name": "FORMOSAT-5",
        "group": "resource",
        "lat": 68.5875305899797,
        "lon": 36.09020117356396,
        "alt_km": 719.6068829680535,
        "timestamp": "2025-12-09T09:46:47.304565+00:00",
        "meta_object_name": "FORMOSAT-5",
        "meta_object_id": "2017-049A",
        "meta_epoch": "2025-12-09T04:29:33.392256",
        "meta_mean_motion": 14.51001878,
        "meta_eccentricity": 0.001003,
        "meta_inclination": 98.2456,
        "meta_ra_of_asc_node": 57.5766,
        "meta_arg_of_pericenter": 307.5764,
        "meta_mean_anomaly": 52.4519,
        "meta_ephemeris_type": 0,
        "meta_classification_type": "U",
        "meta_norad_cat_id": 42920,
        "meta_element_set_no": 999,
        "meta_rev_at_epoch": 43912,
        "meta_bstar": 0.00011169,
        "meta_mean_motion_dot": 3.98e-06,
        "meta_mean_motion_ddot": 0,
        "tle_line1": "1 42920U 17049A   25343.18719204  .00000398  00000+0  11169-3 0  9997",
        "tle_line2": "2 42920  98.2456  57.5766 0010030 307.5764  52.4519 14.51001878439125"
      },
      "geometry": {
        "type": "Point",
        "coordinates": [
          36.09020117356396,
          68.5875305899797
        ]
      }
    },
    {
      "type": "Feature",
      "properties": {
        "norad_id": 42969,
        "name": "SENTINEL-5P",
        "group": "resource",
        "lat": 56.21670575528041,
        "lon": 115.37455661848493,
        "alt_km": 821.0208233330322,
        "timestamp": "2025-12-09T09:46:47.304576+00:00",
        "meta_object_name": "SENTINEL-5P",
        "meta_object_id": "2017-064A",
        "meta_epoch": "2025-12-09T02:26:13.979616",
        "meta_mean_motion": 14.19515962,
        "meta_eccentricity": 9.57e-05,
        "meta_inclination": 98.778,
        "meta_ra_of_asc_node": 281.7181,
        "meta_arg_of_pericenter": 87.1353,
        "meta_mean_anomaly": 272.9932,
        "meta_ephemeris_type": 0,
        "meta_classification_type": "U",
        "meta_norad_cat_id": 42969,
        "meta_element_set_no": 999,
        "meta_rev_at_epoch": 42259,
        "meta_bstar": 9.4124e-05,
        "meta_mean_motion_dot": 1.54e-06,
        "meta_mean_motion_ddot": 0,
        "tle_line1": "1 42969U 17064A   25343.10155069  .00000154  00000+0  94124-4 0  9995",
        "tle_line2": "2 42969  98.7780 281.7181 0000957  87.1353 272.9932 14.19515962422596"
      },
      "geometry": {
        "type": "Point",
        "coordinates": [
          115.37455661848493,
          56.21670575528041
        ]
      }
    },
    {
      "type": "Feature",
      "properties": {
        "norad_id": 42987,
        "name": "SKYSAT-C11",
        "group": "resource",
        "lat": 34.04046761800362,
        "lon": -54.13561428819324,
        "alt_km": 422.26863563370534,
        "timestamp": "2025-12-09T09:46:47.304587+00:00",
        "meta_object_name": "SKYSAT-C11",
        "meta_object_id": "2017-068A",
        "meta_epoch": "2025-12-09T02:56:39.095808",
        "meta_mean_motion": 15.47213033,
        "meta_eccentricity": 9.45e-05,
        "meta_inclination": 97.4144,
        "meta_ra_of_asc_node": 120.5257,
        "meta_arg_of_pericenter": 107.0175,
        "meta_mean_anomaly": 253.1179,
        "meta_ephemeris_type": 0,
        "meta_classification_type": "U",
        "meta_norad_cat_id": 42987,
        "meta_element_set_no": 999,
        "meta_rev_at_epoch": 45375,
        "meta_bstar": 0.00053842,
        "meta_mean_motion_dot": 0.00027347,
        "meta_mean_motion_ddot": 0,
        "tle_line1": "1 42987U 17068A   25343.12267472  .00027347  00000+0  53842-3 0  9997",
        "tle_line2": "2 42987  97.4144 120.5257 0000945 107.0175 253.1179 15.47213033453753"
      },
      "geometry": {
        "type": "Point",
        "coordinates": [
          -54.13561428819324,
          34.04046761800362
        ]
      }
    }
  ]
}